CCSDS_OMM_VERS = 2.0
CREATION_DATE  = 
ORIGINATOR     = 

OBJECT_NAME    = SL-14 R/B
OBJECT_ID      = 1991-042B
CENTER_NAME    = EARTH
REF_FRAME      = TEME
TIME_SYSTEM    = UTC
MEAN_ELEMENT_THEORY = SGP/SGP4

EPOCH          = 2025-12-25T21:11:11.392800
MEAN_MOTION    = 14.81750548
ECCENTRICITY   = .00183996
INCLINATION    = 82.4935
RA_OF_ASC_NODE = 289.3992
ARG_OF_PERICENTER = 120.8297
MEAN_ANOMALY   = 239.4730

EPHEMERIS_TYPE = 0
CLASSIFICATION_TYPE = U
NORAD_CAT_ID   = 21423
ELEMENT_SET_NO = 999
REV_AT_EPOCH   = 84214
BSTAR          = .5706609E-4
MEAN_MOTION_DOT = .475E-5
MEAN_MOTION_DDOT = 0

CCSDS_OMM_VERS = 2.0
CREATION_DATE  = 
ORIGINATOR     = 

OBJECT_NAME    = ERS-1
OBJECT_ID      = 1991-050A
CENTER_NAME    = EARTH
REF_FRAME      = TEME
TIME_SYSTEM    = UTC
MEAN_ELEMENT_THEORY = SGP/SGP4

EPOCH          = 2025-12-25T22:40:21.413856
MEAN_MOTION    = 14.39374656
ECCENTRICITY   = .00328942
INCLINATION    = 98.7902
RA_OF_ASC_NODE = 11.3295
ARG_OF_PERICENTER = 62.0742
MEAN_ANOMALY   = 298.3769

EPHEMERIS_TYPE = 0
CLASSIFICATION_TYPE = U
NORAD_CAT_ID   = 21574
ELEMENT_SET_NO = 999
REV_AT_EPOCH   = 80512
BSTAR          = .11960365E-3
MEAN_MOTION_DOT = .328E-5
MEAN_MOTION_DDOT = 0

CCSDS_OMM_VERS = 2.0
CREATION_DATE  = 
ORIGINATOR     = 

OBJECT_NAME    = ARIANE 40 R/B
OBJECT_ID      = 1991-050F
CENTER_NAME    = EARTH
REF_FRAME      = TEME
TIME_SYSTEM    = UTC
MEAN_ELEMENT_THEORY = SGP/SGP4

EPOCH          = 2025-12-25T18:06:54.259488
MEAN_MOTION    = 14.42823498
ECCENTRICITY   = .00020712
INCLINATION    = 98.2148
RA_OF_ASC_NODE = 49.7146
ARG_OF_PERICENTER = 311.6925
MEAN_ANOMALY   = 48.4088

EPHEMERIS_TYPE = 0
CLASSIFICATION_TYPE = U
NORAD_CAT_ID   = 21610
ELEMENT_SET_NO = 999
REV_AT_EPOCH   = 80833
BSTAR          = .11341428E-3
MEAN_MOTION_DOT = .336E-5
MEAN_MOTION_DDOT = 0

CCSDS_OMM_VERS = 2.0
CREATION_DATE  = 
ORIGINATOR     = 

OBJECT_NAME    = INTERCOSMOS 25
OBJECT_ID      = 1991-086A
CENTER_NAME    = EARTH
REF_FRAME      = TEME
TIME_SYSTEM    = UTC
MEAN_ELEMENT_THEORY = SGP/SGP4

EPOCH          = 2025-12-25T20:16:58.418112
MEAN_MOTION    = 12.11779738
ECCENTRICITY   = .1486312
INCLINATION    = 82.6083
RA_OF_ASC_NODE = 354.6481
ARG_OF_PERICENTER = 276.1341
MEAN_ANOMALY   = 67.2966

EPHEMERIS_TYPE = 0
CLASSIFICATION_TYPE = U
NORAD_CAT_ID   = 21819
ELEMENT_SET_NO = 999
REV_AT_EPOCH   = 48774
BSTAR          = .38499195E-3
MEAN_MOTION_DOT = .1933E-4
MEAN_MOTION_DDOT = 0

CCSDS_OMM_VERS = 2.0
CREATION_DATE  = 
ORIGINATOR     = 

OBJECT_NAME    = SL-8 R/B
OBJECT_ID      = 1992-008B
CENTER_NAME    = EARTH
REF_FRAME      = TEME
TIME_SYSTEM    = UTC
MEAN_ELEMENT_THEORY = SGP/SGP4

EPOCH          = 2025-12-25T21:44:04.704000
MEAN_MOTION    = 13.75961867
ECCENTRICITY   = .00343431
INCLINATION    = 82.9274
RA_OF_ASC_NODE = 322.6532
ARG_OF_PERICENTER = 343.1673
MEAN_ANOMALY   = 36.7936

EPHEMERIS_TYPE = 0
CLASSIFICATION_TYPE = U
NORAD_CAT_ID   = 21876
ELEMENT_SET_NO = 999
REV_AT_EPOCH   = 69927
BSTAR          = .11897827E-3
MEAN_MOTION_DOT = .131E-5
MEAN_MOTION_DDOT = 0

CCSDS_OMM_VERS = 2.0
CREATION_DATE  = 
ORIGINATOR     = 

OBJECT_NAME    = SL-8 R/B
OBJECT_ID      = 1992-020B
CENTER_NAME    = EARTH
REF_FRAME      = TEME
TIME_SYSTEM    = UTC
MEAN_ELEMENT_THEORY = SGP/SGP4

EPOCH          = 2025-12-25T22:41:17.612736
MEAN_MOTION    = 13.75530538
ECCENTRICITY   = .00297238
INCLINATION    = 82.9291
RA_OF_ASC_NODE = 208.5112
ARG_OF_PERICENTER = 141.7108
MEAN_ANOMALY   = 334.3286

EPHEMERIS_TYPE = 0
CLASSIFICATION_TYPE = U
NORAD_CAT_ID   = 21938
ELEMENT_SET_NO = 999
REV_AT_EPOCH   = 69099
BSTAR          = .12910632E-3
MEAN_MOTION_DOT = .14E-5
MEAN_MOTION_DDOT = 0

CCSDS_OMM_VERS = 2.0
CREATION_DATE  = 
ORIGINATOR     = 

OBJECT_NAME    = USA 81
OBJECT_ID      = 1992-023A
CENTER_NAME    = EARTH
REF_FRAME      = TEME
TIME_SYSTEM    = UTC
MEAN_ELEMENT_THEORY = SGP/SGP4

EPOCH          = 2025-12-25T22:59:36.384000
MEAN_MOTION    = 14.32331652
ECCENTRICITY   = .00010756
INCLINATION    = 85.0080
RA_OF_ASC_NODE = 173.9525
ARG_OF_PERICENTER = 90.0481
MEAN_ANOMALY   = 270.0834

EPHEMERIS_TYPE = 0
CLASSIFICATION_TYPE = U
NORAD_CAT_ID   = 21949
ELEMENT_SET_NO = 999
REV_AT_EPOCH   = 8423
BSTAR          = .68539394E-4
MEAN_MOTION_DOT = .205E-5
MEAN_MOTION_DDOT = 0

CCSDS_OMM_VERS = 2.0
CREATION_DATE  = 
ORIGINATOR     = 

OBJECT_NAME    = COSMOS 2219
OBJECT_ID      = 1992-076A
CENTER_NAME    = EARTH
REF_FRAME      = TEME
TIME_SYSTEM    = UTC
MEAN_ELEMENT_THEORY = SGP/SGP4

EPOCH          = 2025-12-25T21:10:16.203936
MEAN_MOTION    = 14.14068488
ECCENTRICITY   = .00194045
INCLINATION    = 71.0580
RA_OF_ASC_NODE = 172.3589
ARG_OF_PERICENTER = 308.8033
MEAN_ANOMALY   = 51.1356

EPHEMERIS_TYPE = 0
CLASSIFICATION_TYPE = U
NORAD_CAT_ID   = 22219
ELEMENT_SET_NO = 999
REV_AT_EPOCH   = 70794
BSTAR          = .21421565E-3
MEAN_MOTION_DOT = .361E-5
MEAN_MOTION_DDOT = 0

CCSDS_OMM_VERS = 2.0
CREATION_DATE  = 
ORIGINATOR     = 

OBJECT_NAME    = SL-16 R/B
OBJECT_ID      = 1992-076B
CENTER_NAME    = EARTH
REF_FRAME      = TEME
TIME_SYSTEM    = UTC
MEAN_ELEMENT_THEORY = SGP/SGP4

EPOCH          = 2025-12-25T23:46:09.899040
MEAN_MOTION    = 14.16845667
ECCENTRICITY   = .00141293
INCLINATION    = 71.0010
RA_OF_ASC_NODE = 343.6190
ARG_OF_PERICENTER = 216.4537
MEAN_ANOMALY   = 206.2368

EPHEMERIS_TYPE = 0
CLASSIFICATION_TYPE = U
NORAD_CAT_ID   = 22220
ELEMENT_SET_NO = 999
REV_AT_EPOCH   = 71139
BSTAR          = .30584499E-4
MEAN_MOTION_DOT = .13E-6
MEAN_MOTION_DDOT = 0

CCSDS_OMM_VERS = 2.0
CREATION_DATE  = 
ORIGINATOR     = 

OBJECT_NAME    = COSMOS 2221
OBJECT_ID      = 1992-080A
CENTER_NAME    = EARTH
REF_FRAME      = TEME
TIME_SYSTEM    = UTC
MEAN_ELEMENT_THEORY = SGP/SGP4

EPOCH          = 2025-12-25T22:18:30.932352
MEAN_MOTION    = 14.95810834
ECCENTRICITY   = .00163156
INCLINATION    = 82.5038
RA_OF_ASC_NODE = 349.6995
ARG_OF_PERICENTER = 81.5127
MEAN_ANOMALY   = 278.7943

EPHEMERIS_TYPE = 0
CLASSIFICATION_TYPE = U
NORAD_CAT_ID   = 22236
ELEMENT_SET_NO = 999
REV_AT_EPOCH   = 76976
BSTAR          = .18848485E-3
MEAN_MOTION_DOT = .2134E-4
MEAN_MOTION_DDOT = 0

CCSDS_OMM_VERS = 2.0
CREATION_DATE  = 
ORIGINATOR     = 

OBJECT_NAME    = SL-16 R/B
OBJECT_ID      = 1992-093B
CENTER_NAME    = EARTH
REF_FRAME      = TEME
TIME_SYSTEM    = UTC
MEAN_ELEMENT_THEORY = SGP/SGP4

EPOCH          = 2025-12-25T19:38:12.752160
MEAN_MOTION    = 14.15435396
ECCENTRICITY   = .00025799
INCLINATION    = 71.0208
RA_OF_ASC_NODE = 159.3415
ARG_OF_PERICENTER = 30.0914
MEAN_ANOMALY   = 330.0357

EPHEMERIS_TYPE = 0
CLASSIFICATION_TYPE = U
NORAD_CAT_ID   = 22285
ELEMENT_SET_NO = 999
REV_AT_EPOCH   = 70270
BSTAR          = -.15412354E-4
MEAN_MOTION_DOT = -.78E-6
MEAN_MOTION_DDOT = 0

CCSDS_OMM_VERS = 2.0
CREATION_DATE  = 
ORIGINATOR     = 

OBJECT_NAME    = COSMOS 2228
OBJECT_ID      = 1992-094A
CENTER_NAME    = EARTH
REF_FRAME      = TEME
TIME_SYSTEM    = UTC
MEAN_ELEMENT_THEORY = SGP/SGP4

EPOCH          = 2025-12-25T22:15:08.353728
MEAN_MOTION    = 14.96788677
ECCENTRICITY   = .0017615
INCLINATION    = 82.5190
RA_OF_ASC_NODE = 307.9162
ARG_OF_PERICENTER = 184.5185
MEAN_ANOMALY   = 175.5882

EPHEMERIS_TYPE = 0
CLASSIFICATION_TYPE = U
NORAD_CAT_ID   = 22286
ELEMENT_SET_NO = 999
REV_AT_EPOCH   = 76502
BSTAR          = .21973057E-3
MEAN_MOTION_DOT = .2547E-4
MEAN_MOTION_DDOT = 0

