SL-14 R/B               
1 21423U 91042B   25359.88277075  .00000475  00000+0  57066-4 0  9999
2 21423  82.4935 289.3992 0018399 120.8297 239.4730 14.81750548842146
ERS-1                   
1 21574U 91050A   25359.94469229  .00000328  00000+0  11960-3 0  9995
2 21574  98.7902  11.3295 0032894  62.0742 298.3769 14.39374656805122
ARIANE 40 R/B           
1 21610U 91050F   25359.75479467  .00000336  00000+0  11341-3 0  9992
2 21610  98.2148  49.7146 0002071 311.6925  48.4088 14.42823498808331
INTERCOSMOS 25          
1 21819U 91086A   25359.84512058  .00001933  00000+0  38499-3 0  9993
2 21819  82.6083 354.6481 1486312 276.1341  67.2966 12.11779738487742
SL-8 R/B                
1 21876U 92008B   25359.90561000  .00000131  00000+0  11898-3 0  9992
2 21876  82.9274 322.6532 0034343 343.1673  36.7936 13.75961867699275
SL-8 R/B                
1 21938U 92020B   25359.94534274  .00000140  00000+0  12911-3 0  9999
2 21938  82.9291 208.5112 0029723 141.7108 334.3286 13.75530538690992
USA 81                  
1 21949U 92023A   25359.95806000  .00000205  00000+0  68539-4 0  9994
2 21949  85.0080 173.9525 0001075  90.0481 270.0834 14.32331652 84236
COSMOS 2219             
1 22219U 92076A   25359.88213199  .00000361  00000+0  21422-3 0  9998
2 22219  71.0580 172.3589 0019404 308.8033  51.1356 14.14068488707949
SL-16 R/B               
1 22220U 92076B   25359.99039235  .00000013  00000+0  30584-4 0  9993
2 22220  71.0010 343.6190 0014129 216.4537 206.2368 14.16845667711396
COSMOS 2221             
1 22236U 92080A   25359.92952468  .00002134  00000+0  18848-3 0  9994
2 22236  82.5038 349.6995 0016315  81.5127 278.7943 14.95810834769766
SL-16 R/B               
1 22285U 92093B   25359.81820315 -.00000078  00000+0 -15412-4 0  9997
2 22285  71.0208 159.3415 0002579  30.0914 330.0357 14.15435396702705
COSMOS 2228             
1 22286U 92094A   25359.92718002  .00002547  00000+0  21973-3 0  9999
2 22286  82.5190 307.9162 0017615 184.5185 175.5882 14.96788677765026
